STARLINK-2134_new
1 17407C 21005BL  21326.09125375  .00008220  00000-0  55057-3 0  3267
2 17407  53.0542 233.3423 0002071  70.7748  64.1486 15.06399581    13
STARLINK-2134_old
1 27407C 21005BL  21325.15676669 -.00001905  00000-0 -12763-3 0  3251
2 27407  53.0544 237.5267 0002034  69.5247  34.8380 15.06399623    10
